[{"OBJECT_NAME":"STARLINK-3969","OBJECT_ID":"2022-051U","EPOCH":"2026-03-09T12:58:45.806016","MEAN_MOTION":15.08827185,"ECCENTRICITY":0.00010558,"INCLINATION":53.2167,"RA_OF_ASC_NODE":129.79,"ARG_OF_PERICENTER":99.3768,"MEAN_ANOMALY":260.7343,"EPHEMERIS_TYPE":0,"CLASSIFICATION_TYPE":"U","NORAD_CAT_ID":52551,"ELEMENT_SET_NO":999,"REV_AT_EPOCH":21142,"BSTAR":0.00013659308,"MEAN_MOTION_DOT":1.886e-5,"MEAN_MOTION_DDOT":0},{"OBJECT_NAME":"COSMOS 2251 DEB","OBJECT_ID":"1993-036BWC","EPOCH":"2026-03-01T08:05:57.545376","MEAN_MOTION":14.97612795,"ECCENTRICITY":0.01162666,"INCLINATION":73.926,"RA_OF_ASC_NODE":298.2127,"ARG_OF_PERICENTER":162.8882,"MEAN_ANOMALY":197.6278,"EPHEMERIS_TYPE":0,"CLASSIFICATION_TYPE":"U","NORAD_CAT_ID":40799,"ELEMENT_SET_NO":999,"REV_AT_EPOCH":51153,"BSTAR":0.00042095283,"MEAN_MOTION_DOT":5.616e-5,"MEAN_MOTION_DDOT":0}]
